{
    "links": {
        "self": "http://www.neowsapp.com/rest/v1/neo/3843680?api_key=iIulBulltgU6a56xZRHN4H3l9WmuAYTsLGpBGhQ2"
    },
    "id": "3843680",
    "neo_reference_id": "3843680",
    "name": "(2019 QR5)",
    "designation": "2019 QR5",
    "nasa_jpl_url": "http://ssd.jpl.nasa.gov/sbdb.cgi?sstr=3843680",
    "absolute_magnitude_h": 23.1,
    "estimated_diameter": {
        "kilometers": {
            "estimated_diameter_min": 0.063760979,
            "estimated_diameter_max": 0.1425738833
        },
        "meters": {
            "estimated_diameter_min": 63.7609789875,
            "estimated_diameter_max": 142.5738833281
        },
        "miles": {
            "estimated_diameter_min": 0.0396192233,
            "estimated_diameter_max": 0.0885912765
        },
        "feet": {
            "estimated_diameter_min": 209.1895703015,
            "estimated_diameter_max": 467.7620993781
        }
    },
    "is_potentially_hazardous_asteroid": false,
    "close_approach_data": [
        {
            "close_approach_date": "2019-07-20",
            "close_approach_date_full": "2019-Jul-20 23:23",
            "epoch_date_close_approach": 1563664980000,
            "relative_velocity": {
                "kilometers_per_second": "5.6128689349",
                "kilometers_per_hour": "20206.3281654973",
                "miles_per_hour": "12555.4265203891"
            },
            "miss_distance": {
                "astronomical": "0.123794959",
                "lunar": "48.156239051",
                "kilometers": "18519462.18313733",
                "miles": "11507460.192581954"
            },
            "orbiting_body": "Earth"
        }
    ],
    "orbital_data": {
        "orbit_id": "2",
        "orbit_determination_date": "2019-09-05 05:55:14",
        "first_observation_date": "2019-08-28",
        "last_observation_date": "2019-09-05",
        "data_arc_in_days": 8,
        "observations_used": 16,
        "orbit_uncertainty": "8",
        "minimum_orbit_intersection": ".120517",
        "jupiter_tisserand_invariant": "3.608",
        "epoch_osculation": "2458724.5",
        "eccentricity": ".4584071577312264",
        "semi_major_axis": "2.091536609179778",
        "inclination": "6.372692071168018",
        "ascending_node_longitude": "282.615751570017",
        "orbital_period": "1104.832987890482",
        "perihelion_distance": "1.132761256874869",
        "perihelion_argument": "17.74468586945702",
        "aphelion_distance": "3.050311961484688",
        "perihelion_time": "2458689.560309993674",
        "mean_anomaly": "11.38478714895523",
        "mean_motion": ".3258411035385247",
        "equinox": "J2000",
        "orbit_class": {
            "orbit_class_type": "AMO",
            "orbit_class_description": "Near-Earth asteroid orbits similar to that of 1221 Amor",
            "orbit_class_range": "1.017 AU < q (perihelion) < 1.3 AU"
        }
    },
    "is_sentry_object": false
}